TIANMU-1 07             
1 57399U 23101A   26065.57454230  .00008352  00000+0  29795-3 0  9991
2 57399  97.2728 118.5929 0004609 142.4105 217.7458 15.29118809145964
STARLINK-31927          
1 59837U 24097C   26068.93182593 -.00001097  00000+0 -30352-4 0  9991
2 59837  43.0003 273.0098 0001139 263.7418  96.3304 15.27566873101959
