[{"OBJECT_NAME":"TIANMU-1 07","OBJECT_ID":"2023-101A","EPOCH":"2026-03-06T13:47:20.454720","MEAN_MOTION":15.29118809,"ECCENTRICITY":0.00046097,"INCLINATION":97.2728,"RA_OF_ASC_NODE":118.5929,"ARG_OF_PERICENTER":142.4105,"MEAN_ANOMALY":217.7458,"EPHEMERIS_TYPE":0,"CLASSIFICATION_TYPE":"U","NORAD_CAT_ID":57399,"ELEMENT_SET_NO":999,"REV_AT_EPOCH":14596,"BSTAR":0.00029794732,"MEAN_MOTION_DOT":8.352e-5,"MEAN_MOTION_DDOT":0},{"OBJECT_NAME":"STARLINK-31927","OBJECT_ID":"2024-097C","EPOCH":"2026-03-09T22:21:49.760352","MEAN_MOTION":15.27566873,"ECCENTRICITY":0.00011387,"INCLINATION":43.0003,"RA_OF_ASC_NODE":273.0098,"ARG_OF_PERICENTER":263.7418,"MEAN_ANOMALY":96.3304,"EPHEMERIS_TYPE":0,"CLASSIFICATION_TYPE":"U","NORAD_CAT_ID":59837,"ELEMENT_SET_NO":999,"REV_AT_EPOCH":10195,"BSTAR":-3.035175e-5,"MEAN_MOTION_DOT":-1.097e-5,"MEAN_MOTION_DDOT":0}]
